GLOBALSTAR M045         
1 25676U 99019A   25215.61661999 -.00000095  00000+0 -15895-4 0  9993
2 25676  51.9953 170.0846 0000555 348.4509 182.8904 12.27064402199216
GLOBALSTAR M044         
1 25678U 99019C   25215.90594804 -.00000085  00000+0 -18916-4 0  9993
2 25678  51.9956 260.3180 0006272 134.6909  36.7895 11.90253968177001
GLOBALSTAR M042         
1 25679U 99019D   25215.93496216 -.00000056  00000+0  34103-3 0  9997
2 25679  52.0010 276.1643 0002884  45.2417 126.0786 12.22084950191096
GLOBALSTAR M025         
1 25770U 99031A   25215.84348892 -.00000060  00000+0  22302-3 0  9992
2 25770  51.9827  48.8713 0001064 212.6309 160.2231 11.22563090487069
GLOBALSTAR M049         
1 25771U 99031B   25215.89632448 -.00000029  00000+0  12681-2 0  9994
2 25771  51.9876  85.9115 0003503  79.6804 280.4388 11.12118088122733
GLOBALSTAR M047         
1 25772U 99031C   25215.92373671 -.00000069  00000+0  92817-5 0  9995
2 25772  51.9836  78.2579 0016698 347.4903  12.5487 11.31929238476514
